STARLINK-1808
1 26707C 20073AP  21325.16597163  .00005603  00000-0  37550-3 0  3257
2 26707  53.0538  67.4867 0001458 266.7953 302.5718 15.06384121    12
